[{"OBJECT_NAME":"WEINA 2","OBJECT_ID":"2020-103B","EPOCH":"2026-03-09T23:41:17.753856","MEAN_MOTION":14.64853459,"ECCENTRICITY":0.00029334,"INCLINATION":98.066,"RA_OF_ASC_NODE":320.1762,"ARG_OF_PERICENTER":124.191,"MEAN_ANOMALY":235.9572,"EPHEMERIS_TYPE":0,"CLASSIFICATION_TYPE":"U","NORAD_CAT_ID":47303,"ELEMENT_SET_NO":999,"REV_AT_EPOCH":27720,"BSTAR":0.00031236828,"MEAN_MOTION_DOT":1.621e-5,"MEAN_MOTION_DDOT":0},{"OBJECT_NAME":"SL-8 DEB","OBJECT_ID":"1976-069D","EPOCH":"2026-03-09T15:15:02.333952","MEAN_MOTION":14.62897209,"ECCENTRICITY":0.0012063,"INCLINATION":74.0536,"RA_OF_ASC_NODE":157.7607,"ARG_OF_PERICENTER":50.2899,"MEAN_ANOMALY":71.0647,"EPHEMERIS_TYPE":0,"CLASSIFICATION_TYPE":"U","NORAD_CAT_ID":13499,"ELEMENT_SET_NO":999,"REV_AT_EPOCH":38134,"BSTAR":0.00053487,"MEAN_MOTION_DOT":2.709e-5,"MEAN_MOTION_DDOT":0}]
